[{"OBJECT_NAME":"ONEWEB-0012","OBJECT_ID":"2019-010A","EPOCH":"2026-03-02T22:24:07.801632","MEAN_MOTION":13.1659331,"ECCENTRICITY":0.000116,"INCLINATION":87.8997,"RA_OF_ASC_NODE":249.9229,"ARG_OF_PERICENTER":92.8419,"MEAN_ANOMALY":267.2845,"EPHEMERIS_TYPE":0,"CLASSIFICATION_TYPE":"U","NORAD_CAT_ID":44057,"ELEMENT_SET_NO":999,"REV_AT_EPOCH":33758,"BSTAR":-8.1168683e-5,"MEAN_MOTION_DOT":-1.8e-7,"MEAN_MOTION_DDOT":0},{"OBJECT_NAME":"ONEWEB-0010","OBJECT_ID":"2019-010B","EPOCH":"2026-03-02T21:11:10.349088","MEAN_MOTION":13.16592884,"ECCENTRICITY":0.00018589,"INCLINATION":87.8999,"RA_OF_ASC_NODE":249.9285,"ARG_OF_PERICENTER":103.5377,"MEAN_ANOMALY":256.5961,"EPHEMERIS_TYPE":0,"CLASSIFICATION_TYPE":"U","NORAD_CAT_ID":44058,"ELEMENT_SET_NO":999,"REV_AT_EPOCH":33762,"BSTAR":0.0002323952,"MEAN_MOTION_DOT":1.02e-6,"MEAN_MOTION_DDOT":0},{"OBJECT_NAME":"ONEWEB-0008","OBJECT_ID":"2019-010C","EPOCH":"2026-03-02T21:47:39.484032","MEAN_MOTION":13.16593237,"ECCENTRICITY":0.00016801,"INCLINATION":87.8999,"RA_OF_ASC_NODE":249.9208,"ARG_OF_PERICENTER":86.248,"MEAN_ANOMALY":273.8843,"EPHEMERIS_TYPE":0,"CLASSIFICATION_TYPE":"U","NORAD_CAT_ID":44059,"ELEMENT_SET_NO":999,"REV_AT_EPOCH":33774,"BSTAR":6.8262984e-5,"MEAN_MOTION_DOT":3.9e-7,"MEAN_MOTION_DDOT":0},{"OBJECT_NAME":"ONEWEB-0007","OBJECT_ID":"2019-010D","EPOCH":"2026-03-02T15:08:04.514784","MEAN_MOTION":13.15546879,"ECCENTRICITY":0.0001431,"INCLINATION":87.8949,"RA_OF_ASC_NODE":280.5011,"ARG_OF_PERICENTER":99.071,"MEAN_ANOMALY":261.0583,"EPHEMERIS_TYPE":0,"CLASSIFICATION_TYPE":"U","NORAD_CAT_ID":44060,"ELEMENT_SET_NO":999,"REV_AT_EPOCH":33736,"BSTAR":-0.00026263,"MEAN_MOTION_DOT":-8.6e-7,"MEAN_MOTION_DDOT":0},{"OBJECT_NAME":"ONEWEB-0006","OBJECT_ID":"2019-010E","EPOCH":"2026-03-02T15:13:45.616800","MEAN_MOTION":13.15547041,"ECCENTRICITY":0.000163,"INCLINATION":87.8959,"RA_OF_ASC_NODE":280.4534,"ARG_OF_PERICENTER":95.9567,"MEAN_ANOMALY":264.1749,"EPHEMERIS_TYPE":0,"CLASSIFICATION_TYPE":"U","NORAD_CAT_ID":44061,"ELEMENT_SET_NO":999,"REV_AT_EPOCH":33741,"BSTAR":-0.00065027,"MEAN_MOTION_DOT":-2.32e-6,"MEAN_MOTION_DDOT":0},{"OBJECT_NAME":"ONEWEB-0011","OBJECT_ID":"2019-010F","EPOCH":"2026-03-02T16:17:40.087680","MEAN_MOTION":13.15551041,"ECCENTRICITY":0.00017635,"INCLINATION":87.8958,"RA_OF_ASC_NODE":280.453,"ARG_OF_PERICENTER":88.0963,"MEAN_ANOMALY":272.0369,"EPHEMERIS_TYPE":0,"CLASSIFICATION_TYPE":"U","NORAD_CAT_ID":44062,"ELEMENT_SET_NO":999,"REV_AT_EPOCH":33741,"BSTAR":0.0003435282,"MEAN_MOTION_DOT":1.42e-6,"MEAN_MOTION_DDOT":0},{"OBJECT_NAME":"ONEWEB-0013","OBJECT_ID":"2020-008A","EPOCH":"2026-03-02T23:00:22.089600","MEAN_MOTION":13.09443683,"ECCENTRICITY":9.161e-5,"INCLINATION":87.8427,"RA_OF_ASC_NODE":74.2723,"ARG_OF_PERICENTER":76.1863,"MEAN_ANOMALY":283.9366,"EPHEMERIS_TYPE":0,"CLASSIFICATION_TYPE":"U","NORAD_CAT_ID":45131,"ELEMENT_SET_NO":999,"REV_AT_EPOCH":29216,"BSTAR":0.00049461039,"MEAN_MOTION_DOT":1.83e-6,"MEAN_MOTION_DDOT":0},{"OBJECT_NAME":"ONEWEB-0017","OBJECT_ID":"2020-008B","EPOCH":"2026-03-02T22:32:22.433856","MEAN_MOTION":13.10374231,"ECCENTRICITY":0.00020046,"INCLINATION":87.8763,"RA_OF_ASC_NODE":57.4288,"ARG_OF_PERICENTER":92.666,"MEAN_ANOMALY":267.4697,"EPHEMERIS_TYPE":0,"CLASSIFICATION_TYPE":"U","NORAD_CAT_ID":45132,"ELEMENT_SET_NO":999,"REV_AT_EPOCH":29403,"BSTAR":-0.0016270599,"MEAN_MOTION_DOT":-5.55e-6,"MEAN_MOTION_DDOT":0},{"OBJECT_NAME":"ONEWEB-0020","OBJECT_ID":"2020-008C","EPOCH":"2026-03-02T21:49:22.705248","MEAN_MOTION":13.10369142,"ECCENTRICITY":0.00018396,"INCLINATION":87.8763,"RA_OF_ASC_NODE":57.425,"ARG_OF_PERICENTER":88.1159,"MEAN_ANOMALY":272.0179,"EPHEMERIS_TYPE":0,"CLASSIFICATION_TYPE":"U","NORAD_CAT_ID":45133,"ELEMENT_SET_NO":999,"REV_AT_EPOCH":29442,"BSTAR":0.00082574703,"MEAN_MOTION_DOT":3.01e-6,"MEAN_MOTION_DDOT":0},{"OBJECT_NAME":"ONEWEB-0021","OBJECT_ID":"2020-008D","EPOCH":"2026-03-02T22:10:51.492576","MEAN_MOTION":13.1037023,"ECCENTRICITY":0.00017741,"INCLINATION":87.8756,"RA_OF_ASC_NODE":57.4466,"ARG_OF_PERICENTER":90.4248,"MEAN_ANOMALY":269.7083,"EPHEMERIS_TYPE":0,"CLASSIFICATION_TYPE":"U","NORAD_CAT_ID":45134,"ELEMENT_SET_NO":999,"REV_AT_EPOCH":29473,"BSTAR":-0.0011875333,"MEAN_MOTION_DOT":-4.02e-6,"MEAN_MOTION_DDOT":0},{"OBJECT_NAME":"ONEWEB-0023","OBJECT_ID":"2020-008F","EPOCH":"2026-03-02T22:26:23.485920","MEAN_MOTION":13.103737,"ECCENTRICITY":0.00016859,"INCLINATION":87.8759,"RA_OF_ASC_NODE":57.4242,"ARG_OF_PERICENTER":85.049,"MEAN_ANOMALY":275.083,"EPHEMERIS_TYPE":0,"CLASSIFICATION_TYPE":"U","NORAD_CAT_ID":45136,"ELEMENT_SET_NO":999,"REV_AT_EPOCH":29416,"BSTAR":-0.001868003,"MEAN_MOTION_DOT":-6.39e-6,"MEAN_MOTION_DDOT":0},{"OBJECT_NAME":"ONEWEB-0024","OBJECT_ID":"2020-008G","EPOCH":"2026-03-02T21:46:58.456128","MEAN_MOTION":13.10379635,"ECCENTRICITY":0.00019241,"INCLINATION":87.8769,"RA_OF_ASC_NODE":57.4136,"ARG_OF_PERICENTER":89.6171,"MEAN_ANOMALY":270.5177,"EPHEMERIS_TYPE":0,"CLASSIFICATION_TYPE":"U","NORAD_CAT_ID":45137,"ELEMENT_SET_NO":999,"REV_AT_EPOCH":29432,"BSTAR":-0.0045071303,"MEAN_MOTION_DOT":-1.561e-5,"MEAN_MOTION_DDOT":0},{"OBJECT_NAME":"ONEWEB-0025","OBJECT_ID":"2020-008H","EPOCH":"2026-03-02T22:01:45.042816","MEAN_MOTION":13.10873036,"ECCENTRICITY":0.00015193,"INCLINATION":87.8767,"RA_OF_ASC_NODE":57.4052,"ARG_OF_PERICENTER":89.3378,"MEAN_ANOMALY":270.7924,"EPHEMERIS_TYPE":0,"CLASSIFICATION_TYPE":"U","NORAD_CAT_ID":45138,"ELEMENT_SET_NO":999,"REV_AT_EPOCH":29465,"BSTAR":-0.00034062657,"MEAN_MOTION_DOT":-1.07e-6,"MEAN_MOTION_DDOT":0},{"OBJECT_NAME":"ONEWEB-0026","OBJECT_ID":"2020-008J","EPOCH":"2026-03-02T22:52:58.815264","MEAN_MOTION":13.1141349,"ECCENTRICITY":0.00020026,"INCLINATION":87.8852,"RA_OF_ASC_NODE":42.1887,"ARG_OF_PERICENTER":85.9314,"MEAN_ANOMALY":274.2043,"EPHEMERIS_TYPE":0,"CLASSIFICATION_TYPE":"U","NORAD_CAT_ID":45139,"ELEMENT_SET_NO":999,"REV_AT_EPOCH":29718,"BSTAR":-0.00057492777,"MEAN_MOTION_DOT":-1.91e-6,"MEAN_MOTION_DDOT":0},{"OBJECT_NAME":"ONEWEB-0028","OBJECT_ID":"2020-008K","EPOCH":"2026-03-02T21:50:42.279648","MEAN_MOTION":13.11419854,"ECCENTRICITY":0.00012758,"INCLINATION":87.8842,"RA_OF_ASC_NODE":42.2066,"ARG_OF_PERICENTER":73.3752,"MEAN_ANOMALY":286.7516,"EPHEMERIS_TYPE":0,"CLASSIFICATION_TYPE":"U","NORAD_CAT_ID":45140,"ELEMENT_SET_NO":999,"REV_AT_EPOCH":29469,"BSTAR":-0.0002495406,"MEAN_MOTION_DOT":-7.6e-7,"MEAN_MOTION_DDOT":0},{"OBJECT_NAME":"ONEWEB-0032","OBJECT_ID":"2020-008L","EPOCH":"2026-03-02T22:34:44.657760","MEAN_MOTION":13.10373378,"ECCENTRICITY":0.00014823,"INCLINATION":87.8765,"RA_OF_ASC_NODE":57.4297,"ARG_OF_PERICENTER":79.4267,"MEAN_ANOMALY":280.7027,"EPHEMERIS_TYPE":0,"CLASSIFICATION_TYPE":"U","NORAD_CAT_ID":45141,"ELEMENT_SET_NO":999,"REV_AT_EPOCH":29438,"BSTAR":-0.0015596929,"MEAN_MOTION_DOT":-5.32e-6,"MEAN_MOTION_DDOT":0},{"OBJECT_NAME":"ONEWEB-0033","OBJECT_ID":"2020-008M","EPOCH":"2026-03-02T21:58:55.137216","MEAN_MOTION":13.1037056,"ECCENTRICITY":0.00022948,"INCLINATION":87.8756,"RA_OF_ASC_NODE":57.444,"ARG_OF_PERICENTER":96.1809,"MEAN_ANOMALY":263.958,"EPHEMERIS_TYPE":0,"CLASSIFICATION_TYPE":"U","NORAD_CAT_ID":45142,"ELEMENT_SET_NO":999,"REV_AT_EPOCH":29429,"BSTAR":-0.00018102394,"MEAN_MOTION_DOT":-5.1e-7,"MEAN_MOTION_DDOT":0}]
