ONEWEB-0012             
1 44057U 19010A   26061.93342363 -.00000018  00000+0 -81169-4 0  9998
2 44057  87.8997 249.9229 0001160  92.8419 267.2845 13.16593310337580
ONEWEB-0010             
1 44058U 19010B   26061.88275867  .00000102  00000+0  23240-3 0  9994
2 44058  87.8999 249.9285 0001858 103.5377 256.5961 13.16592884337622
ONEWEB-0008             
1 44059U 19010C   26061.90809588  .00000039  00000+0  68263-4 0  9995
2 44059  87.8999 249.9208 0001680  86.2480 273.8843 13.16593237337740
ONEWEB-0007             
1 44060U 19010D   26061.63060781 -.00000086  00000+0 -26263-3 0  9998
2 44060  87.8949 280.5011 0001431  99.0710 261.0583 13.15546879337369
ONEWEB-0006             
1 44061U 19010E   26061.63455575 -.00000232  00000+0 -65027-3 0  9992
2 44061  87.8959 280.4534 0001630  95.9567 264.1749 13.15547041337412
ONEWEB-0011             
1 44062U 19010F   26061.67893620  .00000142  00000+0  34353-3 0  9990
2 44062  87.8958 280.4530 0001763  88.0963 272.0369 13.15551041337419
ONEWEB-0013             
1 45131U 20008A   26061.95858900  .00000183  00000+0  49461-3 0  9991
2 45131  87.8427  74.2723 0000916  76.1863 283.9366 13.09443683292162
ONEWEB-0017             
1 45132U 20008B   26061.93914854 -.00000555  00000+0 -16271-2 0  9998
2 45132  87.8763  57.4288 0002004  92.6660 267.4697 13.10374231294039
ONEWEB-0020             
1 45133U 20008C   26061.90929057  .00000301  00000+0  82575-3 0  9995
2 45133  87.8763  57.4250 0001839  88.1159 272.0179 13.10369142294422
ONEWEB-0021             
1 45134U 20008D   26061.92420709 -.00000402  00000+0 -11875-2 0  9996
2 45134  87.8756  57.4466 0001774  90.4248 269.7083 13.10370230294738
ONEWEB-0023             
1 45136U 20008F   26061.93499405 -.00000639  00000+0 -18680-2 0  9991
2 45136  87.8759  57.4242 0001685  85.0490 275.0830 13.10373700294167
ONEWEB-0024             
1 45137U 20008G   26061.90762102 -.00001561  00000+0 -45071-2 0  9995
2 45137  87.8769  57.4136 0001924  89.6171 270.5177 13.10379635294328
ONEWEB-0025             
1 45138U 20008H   26061.91788244 -.00000107  00000+0 -34063-3 0  9997
2 45138  87.8767  57.4052 0001519  89.3378 270.7924 13.10873036294652
ONEWEB-0026             
1 45139U 20008J   26061.95345851 -.00000191  00000+0 -57493-3 0  9990
2 45139  87.8852  42.1887 0002002  85.9314 274.2043 13.11413490297182
ONEWEB-0028             
1 45140U 20008K   26061.91021157 -.00000076  00000+0 -24954-3 0  9996
2 45140  87.8842  42.2066 0001275  73.3752 286.7516 13.11419854294697
ONEWEB-0032             
1 45141U 20008L   26061.94079465 -.00000532  00000+0 -15597-2 0  9994
2 45141  87.8765  57.4297 0001482  79.4267 280.7027 13.10373378294380
ONEWEB-0033             
1 45142U 20008M   26061.91591594 -.00000051  00000+0 -18102-3 0  9996
2 45142  87.8756  57.4440 0002294  96.1809 263.9580 13.10370560294298
